OBJECT_NAME,OBJECT_ID,EPOCH,MEAN_MOTION,ECCENTRICITY,INCLINATION,RA_OF_ASC_NODE,ARG_OF_PERICENTER,MEAN_ANOMALY,EPHEMERIS_TYPE,CLASSIFICATION_TYPE,NORAD_CAT_ID,ELEMENT_SET_NO,REV_AT_EPOCH,BSTAR,MEAN_MOTION_DOT,MEAN_MOTION_DDOT
QIANFAN-238,2026-155V,2026-07-16T06:35:24.657216,14.26785103,.00302045,89.0065,60.8232,220.1804,139.7157,0,U,69867,999,153,.87865096E-4,.228E-5,0
CZ-8A R/B,2026-155W,2026-07-16T06:06:54.275904,14.48270353,.01061682,88.9658,60.7695,99.2743,262.0489,0,U,69868,999,154,.95398905E-4,.401E-5,0
STARLINK-37886,2026-157A,2026-07-16T06:00:02.000160,15.88117780,.00007596,53.1609,290.5863,77.0679,247.0454,0,U,69943,999,232,-.84243258E-2,-.2040398E-1,0
STARLINK-37937,2026-157B,2026-07-16T06:00:02.000160,15.88186139,.00007485,53.1610,290.5833,79.6949,245.7901,0,U,69944,999,232,-.83845744E-2,-.2038141E-1,0
STARLINK-37903,2026-157C,2026-07-16T06:00:02.000160,15.88672833,.00007388,53.1608,290.5650,77.1862,257.1356,0,U,69945,999,232,-.81438156E-2,-.2030273E-1,0
STARLINK-37905,2026-157D,2026-07-16T06:00:02.000160,15.89484623,.00007497,53.1608,290.5357,84.1987,264.1910,0,U,69946,999,232,-.78132217E-2,-.2030251E-1,0
STARLINK-37904,2026-157E,2026-07-16T06:00:02.000160,15.89657007,.00006213,53.1607,290.5307,79.2405,271.6421,0,U,69947,999,232,-.76571652E-2,-.2010314E-1,0
STARLINK-37891,2026-157F,2026-07-16T06:00:02.000160,15.89758966,.00007776,53.1605,290.5227,84.4087,270.2710,0,U,69948,999,232,-.76860204E-2,-.2026198E-1,0
STARLINK-37923,2026-157G,2026-07-16T06:00:02.000160,15.90443545,.00008275,53.1608,290.4971,84.7236,282.3257,0,U,69949,999,232,-.74733541E-2,-.2039032E-1,0
STARLINK-37895,2026-157H,2026-07-16T06:00:02.000160,15.90728850,.00007906,53.1603,290.4859,89.6464,282.8042,0,U,69950,999,232,-.74088591E-2,-.2335857E-1,.14390004E-2
STARLINK-37841,2026-157J,2026-07-16T06:00:02.000160,15.91154032,.00007624,53.1602,290.4704,87.4845,292.3600,0,U,69951,999,232,-.72104781E-2,-.2323534E-1,.14308514E-2
STARLINK-37899,2026-157K,2026-07-16T06:00:02.000160,15.91588988,.00006735,53.1603,290.4533,88.5815,299.4810,0,U,69952,999,232,-.70238351E-2,-.2314758E-1,.14270183E-2
STARLINK-37900,2026-157L,2026-07-16T06:00:02.000160,15.91725957,.00007391,53.1601,290.4483,84.2739,306.2103,0,U,69953,999,232,-.69289051E-2,-.229987E-1,.14115954E-2
STARLINK-37882,2026-157M,2026-07-16T06:00:02.000160,15.92150118,.0000787,53.1602,290.4337,77.7200,319.7469,0,U,69954,999,232,-.67627191E-2,-.2294688E-1,.14118054E-2
STARLINK-37928,2026-157N,2026-07-16T06:00:02.000160,15.92090381,.00007892,53.1601,290.4304,77.5368,321.6258,0,U,69955,999,232,-.68554554E-2,-.2318683E-1,.1439194E-2
STARLINK-37824,2026-157P,2026-07-16T06:00:02.000160,15.92124717,.00008439,53.1600,290.4287,81.8569,318.0965,0,U,69956,999,232,-.67657506E-2,-.2292721E-1,.14091235E-2
STARLINK-37919,2026-157Q,2026-07-16T06:00:02.000160,15.92103246,.00008679,53.1600,290.4258,85.8821,315.4519,0,U,69957,999,232,-.68300627E-2,-.2311729E-1,.14311606E-2
STARLINK-37964,2026-157R,2026-07-16T06:00:02.000160,15.92387978,.00008915,53.1600,290.4174,84.5840,320.7385,0,U,69958,999,232,-.66535164E-2,-.2285875E-1,.14050067E-2
STARLINK-37907,2026-157S,2026-07-16T06:00:02.000160,15.92763216,.00008106,53.1598,290.4051,83.2101,328.0063,0,U,69959,999,232,-.64866623E-2,-.2272792E-1,.13952485E-2
STARLINK-37901,2026-157T,2026-07-16T06:00:02.000160,15.92955947,.00008921,53.1597,290.3961,84.9734,330.6025,0,U,69960,999,232,-.63808138E-2,-.2258574E-1,.1381495E-2
STARLINK-37910,2026-157U,2026-07-16T06:00:02.000160,15.93293461,.00009387,53.1596,290.3829,89.3461,332.6278,0,U,69961,999,232,-.63266371E-2,-.2279267E-1,.14107789E-2
STARLINK-37925,2026-157V,2026-07-16T06:00:02.000160,15.93322502,.00009049,53.1597,290.3792,81.4365,342.2379,0,U,69962,999,232,-.63057026E-2,-.227524E-1,.14064647E-2
STARLINK-37931,2026-157W,2026-07-16T06:00:02.000160,15.93376541,.00008287,53.1595,290.3723,82.1126,344.9359,0,U,69963,999,232,-.63659507E-2,-.2303214E-1,.14405091E-2
STARLINK-37914,2026-157X,2026-07-16T06:00:02.000160,15.94042998,.00008056,53.1595,290.3495,83.9711,353.9512,0,U,69964,999,232,-.60782788E-2,-.2278365E-1,.14211429E-2
STARLINK-37840,2026-157Y,2026-07-16T06:00:02.000160,15.94274389,.000072,53.1595,290.3393,84.7702,358.0223,0,U,69965,999,232,-.5975268E-2,-.2267604E-1,.14118897E-2
STARLINK-37894,2026-157Z,2026-07-16T06:00:02.000160,15.94289143,.00009547,53.1594,290.3344,91.8245,353.2115,0,U,69966,999,232,-.61208876E-2,-.2324149E-1,.14803083E-2
STARLINK-37875,2026-157AA,2026-07-16T06:00:02.000160,15.94653516,.00008792,53.1591,290.3217,83.1944,7.8892,0,U,69967,999,232,-.59619661E-2,-.2308448E-1,.14670455E-2
STARLINK-36218,2026-157AB,2026-07-16T06:00:02.000160,15.95173600,.00010423,53.1589,290.3090,66.5592,30.4981,0,U,69968,999,197,-.56689971E-2,-.2257741E-1,.14140303E-2
STARLINK-37921,2026-157AC,2026-07-16T06:00:02.000160,15.95772731,.00011788,53.1593,290.2845,75.5953,33.1667,0,U,69969,999,232,-.55217891E-2,-.2271412E-1,.14400177E-2
