QIANFAN-238             
1 69867U 26155V   26197.27459094  .00000228  00000+0  87865-4 0  9999
2 69867  89.0065  60.8232 0030204 220.1804 139.7157 14.26785103  1532
CZ-8A R/B               
1 69868U 26155W   26197.25479486  .00000401  00000+0  95399-4 0  9999
2 69868  88.9658  60.7695 0106168  99.2743 262.0489 14.48270353  1540
STARLINK-37886          
1 69943U 26157A   26197.25002315 -.02040398  00000+0 -84243-2 0  9995
2 69943  53.1609 290.5863 0000759  77.0679 247.0454 15.88117780  2326
STARLINK-37937          
1 69944U 26157B   26197.25002315 -.02038141  00000+0 -83846-2 0  9997
2 69944  53.1610 290.5833 0000748  79.6949 245.7901 15.88186139  2328
STARLINK-37903          
1 69945U 26157C   26197.25002315 -.02030273  00000+0 -81438-2 0  9991
2 69945  53.1608 290.5650 0000738  77.1862 257.1356 15.88672833  2321
STARLINK-37905          
1 69946U 26157D   26197.25002315 -.02030251  00000+0 -78132-2 0  9995
2 69946  53.1608 290.5357 0000749  84.1987 264.1910 15.89484623  2327
STARLINK-37904          
1 69947U 26157E   26197.25002315 -.02010314  00000+0 -76572-2 0  9990
2 69947  53.1607 290.5307 0000621  79.2405 271.6421 15.89657007  2329
STARLINK-37891          
1 69948U 26157F   26197.25002315 -.02026198  00000+0 -76860-2 0  9998
2 69948  53.1605 290.5227 0000777  84.4087 270.2710 15.89758966  2327
STARLINK-37923          
1 69949U 26157G   26197.25002315 -.02039032  00000+0 -74734-2 0  9998
2 69949  53.1608 290.4971 0000827  84.7236 282.3257 15.90443545  2327
STARLINK-37895          
1 69950U 26157H   26197.25002315 -.02335857  14390-2 -74089-2 0  9997
2 69950  53.1603 290.4859 0000790  89.6464 282.8042 15.90728850  2327
STARLINK-37841          
1 69951U 26157J   26197.25002315 -.02323534  14309-2 -72105-2 0  9994
2 69951  53.1602 290.4704 0000762  87.4845 292.3600 15.91154032  2326
STARLINK-37899          
1 69952U 26157K   26197.25002315 -.02314758  14270-2 -70238-2 0  9995
2 69952  53.1603 290.4533 0000673  88.5815 299.4810 15.91588988  2320
STARLINK-37900          
1 69953U 26157L   26197.25002315 -.02299870  14116-2 -69289-2 0  9996
2 69953  53.1601 290.4483 0000739  84.2739 306.2103 15.91725957  2325
STARLINK-37882          
1 69954U 26157M   26197.25002315 -.02294688  14118-2 -67627-2 0  9995
2 69954  53.1602 290.4337 0000787  77.7200 319.7469 15.92150118  2324
STARLINK-37928          
1 69955U 26157N   26197.25002315 -.02318683  14392-2 -68555-2 0  9993
2 69955  53.1601 290.4304 0000789  77.5368 321.6258 15.92090381  2326
STARLINK-37824          
1 69956U 26157P   26197.25002315 -.02292721  14091-2 -67658-2 0  9997
2 69956  53.1600 290.4287 0000843  81.8569 318.0965 15.92124717  2324
STARLINK-37919          
1 69957U 26157Q   26197.25002315 -.02311729  14312-2 -68301-2 0  9990
2 69957  53.1600 290.4258 0000867  85.8821 315.4519 15.92103246  2324
STARLINK-37964          
1 69958U 26157R   26197.25002315 -.02285875  14050-2 -66535-2 0  9999
2 69958  53.1600 290.4174 0000891  84.5840 320.7385 15.92387978  2322
STARLINK-37907          
1 69959U 26157S   26197.25002315 -.02272792  13952-2 -64867-2 0  9990
2 69959  53.1598 290.4051 0000810  83.2101 328.0063 15.92763216  2327
STARLINK-37901          
1 69960U 26157T   26197.25002315 -.02258574  13815-2 -63808-2 0  9996
2 69960  53.1597 290.3961 0000892  84.9734 330.6025 15.92955947  2328
STARLINK-37910          
1 69961U 26157U   26197.25002315 -.02279267  14108-2 -63266-2 0  9993
2 69961  53.1596 290.3829 0000938  89.3461 332.6278 15.93293461  2327
STARLINK-37925          
1 69962U 26157V   26197.25002315 -.02275240  14065-2 -63057-2 0  9991
2 69962  53.1597 290.3792 0000904  81.4365 342.2379 15.93322502  2325
STARLINK-37931          
1 69963U 26157W   26197.25002315 -.02303214  14405-2 -63660-2 0  9993
2 69963  53.1595 290.3723 0000828  82.1126 344.9359 15.93376541  2325
STARLINK-37914          
1 69964U 26157X   26197.25002315 -.02278365  14211-2 -60783-2 0  9990
2 69964  53.1595 290.3495 0000805  83.9711 353.9512 15.94042998  2324
STARLINK-37840          
1 69965U 26157Y   26197.25002315 -.02267604  14119-2 -59753-2 0  9997
2 69965  53.1595 290.3393 0000720  84.7702 358.0223 15.94274389  2323
STARLINK-37894          
1 69966U 26157Z   26197.25002315 -.02324149  14803-2 -61209-2 0  9995
2 69966  53.1594 290.3344 0000954  91.8245 353.2115 15.94289143  2320
STARLINK-37875          
1 69967U 26157AA  26197.25002315 -.02308448  14670-2 -59620-2 0  9996
2 69967  53.1591 290.3217 0000879  83.1944   7.8892 15.94653516  2326
STARLINK-36218          
1 69968U 26157AB  26197.25002315 -.02257741  14140-2 -56690-2 0  9992
2 69968  53.1589 290.3090 0001042  66.5592  30.4981 15.95173600  1973
STARLINK-37921          
1 69969U 26157AC  26197.25002315 -.02271412  14400-2 -55218-2 0  9998
2 69969  53.1593 290.2845 0001178  75.5953  33.1667 15.95772731  2328
